{"type": "FeatureCollection", "features": [ {"type": "Feature", "properties": {"norad_id": 66499, "name": "STARLINK-35816", "group": "last-30-days", "lat": -42.91800358155966, "lon": 54.72980699620178, "alt_km": 417.54189049348315, "timestamp": "2025-12-08T17:43:03.631879+00:00", "meta": {"OBJECT_NAME": "STARLINK-35816", "OBJECT_ID": "2025-263Q", "EPOCH": "2025-12-08T06:00:02.999808", "MEAN_MOTION": 15.50569354, "ECCENTRICITY": 0.00014695, "INCLINATION": 43.0003, "RA_OF_ASC_NODE": 151.3545, "ARG_OF_PERICENTER": 264.2843, "MEAN_ANOMALY": 154.5544, "EPHEMERIS_TYPE": 0, "CLASSIFICATION_TYPE": "U", "NORAD_CAT_ID": 66499, "ELEMENT_SET_NO": 999, "REV_AT_EPOCH": 491, "BSTAR": -0.00068617863, "MEAN_MOTION_DOT": -0.00040375, "MEAN_MOTION_DDOT": 0}, "tle": {"line1": "1 66499U 25263Q   25342.25003472 -.00040375  00000+0 -68618-3 0  9993", "line2": "2 66499  43.0003 151.3545 0001469 264.2843 154.5544 15.50569354  4914"}}, "geometry": {"type": "Point", "coordinates": [54.72980699620178, -42.91800358155966]}}, {"type": "Feature", "properties": {"norad_id": 66500, "name": "STARLINK-35894", "group": "last-30-days", "lat": -26.28834930282311, "lon": 0.6254800624660942, "alt_km": 417.3544262657688, "timestamp": "2025-12-08T17:43:03.631891+00:00", "meta": {"OBJECT_NAME": "STARLINK-35894", "OBJECT_ID": "2025-263R", "EPOCH": "2025-12-08T06:00:02.999808", "MEAN_MOTION": 15.50584691, "ECCENTRICITY": 0.00011139, "INCLINATION": 43.0005, "RA_OF_ASC_NODE": 151.4697, "ARG_OF_PERICENTER": 286.2989, "MEAN_ANOMALY": 85.7461, "EPHEMERIS_TYPE": 0, "CLASSIFICATION_TYPE": "U", "NORAD_CAT_ID": 66500, "ELEMENT_SET_NO": 999, "REV_AT_EPOCH": 491, "BSTAR": -0.00092491296, "MEAN_MOTION_DOT": -0.00054237, "MEAN_MOTION_DDOT": 0}, "tle": {"line1": "1 66500U 25263R   25342.25003472 -.00054237  00000+0 -92491-3 0  9994", "line2": "2 66500  43.0005 151.4697 0001113 286.2989  85.7461 15.50584691  4913"}}, "geometry": {"type": "Point", "coordinates": [0.6254800624660942, -26.28834930282311]}}, {"type": "Feature", "properties": {"norad_id": 66501, "name": "STARLINK-35897", "group": "last-30-days", "lat": -42.974097101875124, "lon": 57.323638927946476, "alt_km": 417.27000645184035, "timestamp": "2025-12-08T17:43:03.631902+00:00", "meta": {"OBJECT_NAME": "STARLINK-35897", "OBJECT_ID": "2025-263S", "EPOCH": "2025-12-08T06:00:02.999808", "MEAN_MOTION": 15.50501243, "ECCENTRICITY": 0.0001716, "INCLINATION": 43.0005, "RA_OF_ASC_NODE": 151.3498, "ARG_OF_PERICENTER": 283.447, "MEAN_ANOMALY": 137.3125, "EPHEMERIS_TYPE": 0, "CLASSIFICATION_TYPE": "U", "NORAD_CAT_ID": 66501, "ELEMENT_SET_NO": 999, "REV_AT_EPOCH": 491, "BSTAR": 0.0015205138, "MEAN_MOTION_DOT": 0.00089639, "MEAN_MOTION_DDOT": 0}, "tle": {"line1": "1 66501U 25263S   25342.25003472  .00089639  00000+0  15205-2 0  9994", "line2": "2 66501  43.0005 151.3498 0001716 283.4470 137.3125 15.50501243  4918"}}, "geometry": {"type": "Point", "coordinates": [57.323638927946476, -42.974097101875124]}}, {"type": "Feature", "properties": {"norad_id": 66502, "name": "STARLINK-35922", "group": "last-30-days", "lat": -42.78511758841137, "lon": 65.16054440374653, "alt_km": 417.5235664309439, "timestamp": "2025-12-08T17:43:03.631913+00:00", "meta": {"OBJECT_NAME": "STARLINK-35922", "OBJECT_ID": "2025-263T", "EPOCH": "2025-12-08T06:00:02.999808", "MEAN_MOTION": 15.50569723, "ECCENTRICITY": 0.00014951, "INCLINATION": 43.0003, "RA_OF_ASC_NODE": 151.3345, "ARG_OF_PERICENTER": 265.3258, "MEAN_ANOMALY": 161.1803, "EPHEMERIS_TYPE": 0, "CLASSIFICATION_TYPE": "U", "NORAD_CAT_ID": 66502, "ELEMENT_SET_NO": 999, "REV_AT_EPOCH": 491, "BSTAR": -0.00068302425, "MEAN_MOTION_DOT": -0.00040193, "MEAN_MOTION_DDOT": 0}, "tle": {"line1": "1 66502U 25263T   25342.25003472 -.00040193  00000+0 -68302-3 0  9996", "line2": "2 66502  43.0003 151.3345 0001495 265.3258 161.1803 15.50569723  4910"}}, "geometry": {"type": "Point", "coordinates": [65.16054440374653, -42.78511758841137]}}, {"type": "Feature", "properties": {"norad_id": 66503, "name": "STARLINK-35917", "group": "last-30-days", "lat": -42.36798681535277, "lon": 70.2886398481658, "alt_km": 417.2389371676172, "timestamp": "2025-12-08T17:43:03.631923+00:00", "meta": {"OBJECT_NAME": "STARLINK-35917", "OBJECT_ID": "2025-263U", "EPOCH": "2025-12-08T06:00:02.999808", "MEAN_MOTION": 15.50497392, "ECCENTRICITY": 0.00017116, "INCLINATION": 43.0003, "RA_OF_ASC_NODE": 151.3255, "ARG_OF_PERICENTER": 283.5395, "MEAN_ANOMALY": 146.8054, "EPHEMERIS_TYPE": 0, "CLASSIFICATION_TYPE": "U", "NORAD_CAT_ID": 66503, "ELEMENT_SET_NO": 999, "REV_AT_EPOCH": 491, "BSTAR": 0.0013950628, "MEAN_MOTION_DOT": 0.00082124, "MEAN_MOTION_DDOT": 0}, "tle": {"line1": "1 66503U 25263U   25342.25003472  .00082124  00000+0  13951-2 0  9994", "line2": "2 66503  43.0003 151.3255 0001711 283.5395 146.8054 15.50497392  4916"}}, "geometry": {"type": "Point", "coordinates": [70.2886398481658, -42.36798681535277]}}, {"type": "Feature", "properties": {"norad_id": 66504, "name": "STARLINK-35916", "group": "last-30-days", "lat": 23.961247348406847, "lon": -58.79639078212825, "alt_km": 440.9753407393391, "timestamp": "2025-12-08T17:43:03.631936+00:00", "meta": {"OBJECT_NAME": "STARLINK-35916", "OBJECT_ID": "2025-263V", "EPOCH": "2025-12-08T06:00:02.999808", "MEAN_MOTION": 15.40653244, "ECCENTRICITY": 0.00015196, "INCLINATION": 43.0007, "RA_OF_ASC_NODE": 152.501, "ARG_OF_PERICENTER": 270.1679, "MEAN_ANOMALY": 42.2385, "EPHEMERIS_TYPE": 0, "CLASSIFICATION_TYPE": "U", "NORAD_CAT_ID": 66504, "ELEMENT_SET_NO": 999, "REV_AT_EPOCH": 491, "BSTAR": 0.00062372333, "MEAN_MOTION_DOT": 0.00025799, "MEAN_MOTION_DDOT": 0}, "tle": {"line1": "1 66504U 25263V   25342.25003472  .00025799  00000+0  62372-3 0  9992", "line2": "2 66504  43.0007 152.5010 0001519 270.1679  42.2385 15.40653244  4911"}}, "geometry": {"type": "Point", "coordinates": [-58.79639078212825, 23.961247348406847]}}, {"type": "Feature", "properties": {"norad_id": 66505, "name": "STARLINK-34766", "group": "last-30-days", "lat": -42.97092141293617, "lon": 59.92897459521286, "alt_km": 417.21178186097495, "timestamp": "2025-12-08T17:43:03.631947+00:00", "meta": {"OBJECT_NAME": "STARLINK-34766", "OBJECT_ID": "2025-263W", "EPOCH": "2025-12-08T06:00:02.999808", "MEAN_MOTION": 15.50499366, "ECCENTRICITY": 0.00017948, "INCLINATION": 43.0004, "RA_OF_ASC_NODE": 151.3444, "ARG_OF_PERICENTER": 282.0147, "MEAN_ANOMALY": 140.6623, "EPHEMERIS_TYPE": 0, "CLASSIFICATION_TYPE": "U", "NORAD_CAT_ID": 66505, "ELEMENT_SET_NO": 999, "REV_AT_EPOCH": 491, "BSTAR": 0.0014836788, "MEAN_MOTION_DOT": 0.00087429, "MEAN_MOTION_DDOT": 0}, "tle": {"line1": "1 66505U 25263W   25342.25003472  .00087429  00000+0  14837-2 0  9993", "line2": "2 66505  43.0004 151.3444 0001794 282.0147 140.6623 15.50499366  4916"}}, "geometry": {"type": "Point", "coordinates": [59.92897459521286, -42.97092141293617]}}, {"type": "Feature", "properties": {"norad_id": 66506, "name": "STARLINK-34765", "group": "last-30-days", "lat": -42.908607405166386, "lon": 62.53158342855254, "alt_km": 417.22022291471967, "timestamp": "2025-12-08T17:43:03.631957+00:00", "meta": {"OBJECT_NAME": "STARLINK-34765", "OBJECT_ID": "2025-263X", "EPOCH": "2025-12-08T06:00:02.999808", "MEAN_MOTION": 15.50498593, "ECCENTRICITY": 0.00017875, "INCLINATION": 43.0004, "RA_OF_ASC_NODE": 151.3404, "ARG_OF_PERICENTER": 283.1972, "MEAN_ANOMALY": 141.3955, "EPHEMERIS_TYPE": 0, "CLASSIFICATION_TYPE": "U", "NORAD_CAT_ID": 66506, "ELEMENT_SET_NO": 999, "REV_AT_EPOCH": 491, "BSTAR": 0.0014364698, "MEAN_MOTION_DOT": 0.00084603, "MEAN_MOTION_DDOT": 0}, "tle": {"line1": "1 66506U 25263X   25342.25003472  .00084603  00000+0  14365-2 0  9991", "line2": "2 66506  43.0004 151.3404 0001787 283.1972 141.3955 15.50498593  4910"}}, "geometry": {"type": "Point", "coordinates": [62.53158342855254, -42.908607405166386]}}, {"type": "Feature", "properties": {"norad_id": 66507, "name": "STARLINK-34767", "group": "last-30-days", "lat": -42.60418532931037, "lon": 67.7481784631397, "alt_km": 417.5735294950018, "timestamp": "2025-12-08T17:43:03.631967+00:00", "meta": {"OBJECT_NAME": "STARLINK-34767", "OBJECT_ID": "2025-263Y", "EPOCH": "2025-12-08T06:00:02.999808", "MEAN_MOTION": 15.50569839, "ECCENTRICITY": 0.00014153, "INCLINATION": 43.0005, "RA_OF_ASC_NODE": 151.3295, "ARG_OF_PERICENTER": 266.172, "MEAN_ANOMALY": 162.2512, "EPHEMERIS_TYPE": 0, "CLASSIFICATION_TYPE": "U", "NORAD_CAT_ID": 66507, "ELEMENT_SET_NO": 999, "REV_AT_EPOCH": 491, "BSTAR": -0.00069080488, "MEAN_MOTION_DOT": -0.00040644, "MEAN_MOTION_DDOT": 0}, "tle": {"line1": "1 66507U 25263Y   25342.25003472 -.00040644  00000+0 -69080-3 0  9996", "line2": "2 66507  43.0005 151.3295 0001415 266.1720 162.2512 15.50569839  4913"}}, "geometry": {"type": "Point", "coordinates": [67.7481784631397, -42.60418532931037]}}, {"type": "Feature", "properties": {"norad_id": 66508, "name": "STARLINK-35608", "group": "last-30-days", "lat": -41.72106646287154, "lon": 75.3580379427611, "alt_km": 417.1699553735016, "timestamp": "2025-12-08T17:43:03.631981+00:00", "meta": {"OBJECT_NAME": "STARLINK-35608", "OBJECT_ID": "2025-263Z", "EPOCH": "2025-12-08T06:00:02.999808", "MEAN_MOTION": 15.50499931, "ECCENTRICITY": 0.00017539, "INCLINATION": 43.0004, "RA_OF_ASC_NODE": 151.3162, "ARG_OF_PERICENTER": 284.9952, "MEAN_ANOMALY": 149.1762, "EPHEMERIS_TYPE": 0, "CLASSIFICATION_TYPE": "U", "NORAD_CAT_ID": 66508, "ELEMENT_SET_NO": 999, "REV_AT_EPOCH": 491, "BSTAR": 0.001402185, "MEAN_MOTION_DOT": 0.00082558, "MEAN_MOTION_DDOT": 0}, "tle": {"line1": "1 66508U 25263Z   25342.25003472  .00082558  00000+0  14022-2 0  9990", "line2": "2 66508  43.0004 151.3162 0001753 284.9952 149.1762 15.50499931  4912"}}, "geometry": {"type": "Point", "coordinates": [75.3580379427611, -41.72106646287154]}}]}